ORBCOMM FM20            
1 25416U 98046D   23355.74487364  .00001136  00000+0  44684-3 0  9995
2 25416  44.9938 229.4961 0001237  17.4080 342.6809 14.34705295326152
ORBCOMM FM13            
1 25420U 98046H   23354.76606246  .00001314  00000+0  50858-3 0  9991
2 25420  44.9975 238.0046 0005043  55.7729 304.3595 14.34769796324973
ORBCOMM FM16 [-]        
1 25417U 98046E   23355.85933038  .00001671  00000+0  62447-3 0  9993
2 25417  44.9930 225.6744 0004252  77.3010 282.8313 14.35494567326096
ORBCOMM FM15 [-]        
1 25418U 98046F   23355.79039461  .00001568  00000+0  59159-3 0  9995
2 25418  44.9963 229.7431 0003819  78.1756 281.9519 14.35246884326090
ORBCOMM FM14 [-]        
1 25419U 98046G   23355.78072917  .00001670  00000+0  62540-3 0  9990
2 25419  44.9959 229.0672 0002874  61.9698  48.0810 14.35367488326046
ORBCOMM FM21 [-]        
1 25475U 98053A   23355.89743555  .00001675  00000+0  63457-3 0  9998
2 25475  45.0102 316.8274 0002062 322.1728  37.8974 14.34775797319154
ORBCOMM FM22 [-]        
1 25476U 98053B   23355.92082312  .00001884  00000+0  70205-3 0  9991
2 25476  45.0098 314.5119 0003420 346.5770  13.4986 14.35184652319505
ORBCOMM FM23 [-]        
1 25477U 98053C   23354.95305348  .00001731  00000+0  65429-3 0  9994
2 25477  45.0103 323.7312 0002914 332.3234  27.7457 14.34766567319168
